[Satellite]
VERSION=1.1
NAME=IRIDIUM 115 [+]
NICKNAME=IRIDIUM 115 [+]
TLE1=1 42806U 17039D   19317.46649738  .00000098  00000-0  23050-4 0  9999
TLE2=2 42806  86.4523 248.0035 0004689  76.4571 283.7152 14.43284463126982
STATUS=0
